OBJECT_NAME,OBJECT_ID,EPOCH,MEAN_MOTION,ECCENTRICITY,INCLINATION,RA_OF_ASC_NODE,ARG_OF_PERICENTER,MEAN_ANOMALY,EPHEMERIS_TYPE,CLASSIFICATION_TYPE,NORAD_CAT_ID,ELEMENT_SET_NO,REV_AT_EPOCH,BSTAR,MEAN_MOTION_DOT,MEAN_MOTION_DDOT
STARLINK-35341,2025-232Y,2026-06-26T16:36:28.431072,15.34404139,.0001154,53.1586,316.9332,147.9349,212.1724,0,U,66027,999,4013,.11691E-2,.39337E-3,0
STARLINK-35339,2025-232Z,2026-06-26T16:42:31.591008,15.34410885,.0001415,53.1592,316.9620,92.4934,267.6231,0,U,66028,999,4013,.10681E-2,.35895E-3,0
STARLINK-35399,2025-232AA,2026-06-26T15:32:58.740576,15.34391423,.0000719,53.1620,317.3701,90.6399,269.4686,0,U,66029,999,4012,.98723E-3,.33117E-3,0
STARLINK-35431,2025-232AB,2026-06-26T17:58:09.509952,15.34381366,.0000993,53.1583,316.5785,76.4894,283.6219,0,U,66030,999,4014,.93377E-3,.31285E-3,0
STARLINK-35326,2025-232AC,2026-06-26T15:38:54.623040,15.34379335,.000068,53.1602,316.6848,72.6620,287.4457,0,U,66031,999,4013,.70283E-3,.23429E-3,0
STARLINK-35311,2025-232AD,2026-06-26T15:44:58.149312,15.34394456,.0000722,53.1604,316.7081,103.9936,256.1147,0,U,66032,999,4013,.10138E-2,.34025E-3,0
STARLINK-35552,2025-235A,2026-06-25T23:56:22.063776,15.34398527,.00009734,53.1579,97.9116,91.7955,268.3159,0,U,66058,999,3956,.50659555E-3,.16777E-3,0
STARLINK-35560,2025-235B,2026-06-26T12:19:00.791904,15.33566773,.00018,53.1607,99.7391,82.7036,277.4171,0,U,66059,999,3958,.10726E-2,.35089E-3,0
STARLINK-35558,2025-235C,2026-06-26T11:30:18.741312,15.30208873,.0001041,53.1576,100.2398,95.9443,264.1676,0,U,66060,999,3957,.57131E-3,.16604E-3,0
STARLINK-35566,2025-235D,2026-06-26T11:59:00.834144,15.30224209,.0001209,53.1573,99.6511,85.4492,274.6647,0,U,66061,999,3958,.71864E-3,.21001E-3,0
STARLINK-35421,2025-235E,2026-06-26T17:54:16.299072,15.34406379,.0003504,53.1582,98.3557,88.5072,271.6332,0,U,66062,999,3962,.1474E-2,.49771E-3,0
STARLINK-35562,2025-235F,2026-06-26T11:42:28.086048,15.30200837,.0001501,53.1572,100.2876,89.0088,271.1085,0,U,66063,999,3957,.1116E-2,.3284E-3,0
STARLINK-35542,2025-235G,2026-06-26T01:50:47.927040,15.30212506,.00011175,53.1570,101.9934,69.0572,291.0548,0,U,66064,999,3951,.11000098E-2,.32375E-3,0
STARLINK-35375,2025-235H,2026-06-26T11:39:25.216128,15.30228081,.0001041,53.1579,100.2784,85.6240,274.4880,0,U,66065,999,3957,.94976E-3,.279E-3,0
STARLINK-35179,2025-235J,2026-06-26T01:56:52.433952,15.30213871,.00010377,53.1575,102.0188,78.8166,281.2952,0,U,66066,999,3951,.72685252E-3,.21239E-3,0
STARLINK-35401,2025-235K,2026-06-26T11:26:58.905024,15.34385842,.0001093,53.1584,99.5175,83.1152,276.9974,0,U,66067,999,3955,.65932E-3,.21955E-3,0
STARLINK-35422,2025-235L,2026-06-26T18:00:00.998784,15.34358360,.0001319,53.1593,98.3532,122.2827,248.2656,0,U,66068,999,589,.14161E-2,.47709E-3,0
STARLINK-35279,2025-235M,2026-06-26T18:24:21.743712,15.30177952,.0002015,53.1572,98.4743,96.7427,263.3803,0,U,66069,999,3962,.82243E-3,.24062E-3,0
STARLINK-35295,2025-235N,2026-06-26T17:49:35.836032,15.30187591,.0000956,53.1584,99.0335,99.4367,260.6741,0,U,66070,999,3961,.72283E-3,.21102E-3,0
STARLINK-35323,2025-235P,2026-06-26T11:49:54.287616,15.30199059,.0001615,53.1581,99.6078,82.6959,277.4225,0,U,66071,999,3958,.10397E-2,.30559E-3,0
STARLINK-35299,2025-235Q,2026-06-26T18:03:21.394080,15.34395079,.0002653,53.1588,98.3935,86.4340,273.6966,0,U,66072,999,3962,.52591E-3,.17432E-3,0
STARLINK-35274,2025-235R,2026-06-26T17:51:05.501088,15.30195739,.0001961,53.1573,99.0447,103.2425,256.8794,0,U,66073,999,3961,.75241E-3,.21988E-3,0
STARLINK-35321,2025-235S,2026-06-26T02:01:25.991040,15.30206410,.00011341,53.1571,102.0391,81.4196,278.6933,0,U,66074,999,3951,.84526762E-3,.24764E-3,0
STARLINK-35131,2025-235T,2026-06-26T11:45:08.148960,15.34389386,.0001321,53.1583,99.5923,97.1770,262.9382,0,U,66075,999,3958,.89214E-3,.29876E-3,0
STARLINK-34801,2025-235U,2026-06-26T01:52:18.742080,15.30210543,.00013633,53.1577,101.9981,114.8372,245.2771,0,U,66076,999,3951,.42616006E-3,.12287E-3,0
STARLINK-35129,2025-235V,2026-06-26T18:21:32.785920,15.34394372,.0003277,53.1592,98.4661,75.2831,284.8535,0,U,66077,999,3962,.52389E-3,.17363E-3,0
STARLINK-35116,2025-235W,2026-06-26T04:18:12.238848,15.33569359,.0001151,53.1597,101.2066,99.3096,260.8037,0,U,66078,999,3953,.97493E-3,.31847E-3,0
STARLINK-35402,2025-235X,2026-06-26T18:19:48.118368,15.30196367,.000186,53.1582,98.4535,91.6069,268.5145,0,U,66079,999,3962,.70931E-3,.20705E-3,0
STARLINK-35325,2025-235Y,2026-06-26T02:01:09.128352,15.34399572,.00012815,53.1596,101.3278,77.2575,282.8570,0,U,66080,999,3952,.66553448E-3,.22176E-3,0
STARLINK-35403,2025-235Z,2026-06-26T11:51:09.148032,15.31713966,.0001224,53.1583,98.9020,100.0538,260.0601,0,U,66081,999,3959,.45176E-3,.13685E-3,0
STARLINK-35011,2025-235AA,2026-06-26T18:27:10.163232,15.31713946,.0003012,53.1554,97.7762,88.3565,271.7781,0,U,66082,999,3963,.95955E-3,.29544E-3,0
STARLINK-35291,2025-235AB,2026-06-26T11:37:54.960960,15.30152882,.0000915,53.1578,100.2635,82.3861,277.7243,0,U,66083,999,3954,.4284E-3,.12332E-3,0
STARLINK-35379,2025-235AC,2026-06-26T00:21:17.928576,15.30201858,.00012751,53.1578,102.3080,98.9907,261.1238,0,U,66084,999,3950,.55653355E-3,.16161E-3,0
STARLINK-35370,2025-235AD,2026-06-26T11:28:46.295040,15.30250776,.0001104,53.1581,100.2280,123.0565,237.0542,0,U,66085,999,3954,.12725E-2,.37577E-3,0
STARLINK-35596,2025-236A,2026-06-26T15:46:53.087232,15.30206809,.0001091,53.1603,318.0439,74.1505,285.9616,0,U,66086,999,3962,.11059E-2,.32544E-3,0
STARLINK-35563,2025-236B,2026-06-25T18:55:24.936384,15.34432548,.0001143,53.1609,321.1545,54.6750,305.4359,0,U,66087,999,3944,.84851266E-3,.2843E-3,0
STARLINK-35461,2025-236C,2026-06-26T16:11:01.499424,15.30217754,.0001246,53.1592,317.4374,96.0601,264.0542,0,U,66088,999,3957,.12093E-2,.35647E-3,0
STARLINK-35571,2025-236D,2026-06-26T17:58:45.854112,15.30208752,.0001178,53.1583,317.1946,102.0328,258.0805,0,U,66089,999,3964,.81668E-3,.23913E-3,0
STARLINK-35570,2025-236E,2026-06-26T16:01:54.636672,15.30195955,.0001383,53.1595,317.3972,77.1105,283.0050,0,U,66090,999,3963,.89442E-3,.26221E-3,0
STARLINK-35532,2025-236F,2026-06-26T15:52:47.703072,15.30197190,.0001809,53.1604,317.3558,87.3247,272.7961,0,U,66091,999,3963,.11309E-2,.33283E-3,0
STARLINK-35527,2025-236G,2026-06-26T15:51:00.878112,15.34381113,.0000162,53.1605,316.6478,275.7024,84.3960,0,U,66092,999,3964,.80624E-3,.26946E-3,0
STARLINK-35500,2025-236H,2026-06-26T16:29:15.863424,15.30209231,.0001257,53.1593,317.5170,56.2201,303.8919,0,U,66093,999,3963,.11417E-2,.33617E-3,0
STARLINK-35528,2025-236J,2026-06-26T17:54:11.930688,15.30184594,.0000935,53.1588,317.1721,92.3623,267.7484,0,U,66094,999,3964,.66855E-3,.19484E-3,0
STARLINK-35559,2025-236K,2026-06-26T16:15:34.944192,15.30201043,.0000882,53.1575,317.4538,85.4390,274.6712,0,U,66095,999,3963,.73384E-3,.21438E-3,0
STARLINK-34386,2025-236L,2026-06-26T16:06:28.213632,15.30186661,.0001021,53.1600,317.4175,70.6753,289.4358,0,U,66096,999,3963,.10182E-2,.29907E-3,0
STARLINK-35613,2025-236M,2026-06-26T17:52:40.769184,15.30182908,.0001251,53.1588,317.1681,102.6005,257.5136,0,U,66097,999,3964,.51047E-3,.14782E-3,0
STARLINK-34206,2025-236N,2026-06-26T16:00:06.088032,15.34417480,.0001186,53.1581,316.6840,88.6088,271.5050,0,U,66098,999,3963,.1277E-2,.43042E-3,0
STARLINK-34460,2025-236P,2026-06-26T15:57:21.060576,15.30195682,.0002066,53.1615,317.3760,80.1275,279.9959,0,U,66099,999,3963,.10843E-2,.31889E-3,0
STARLINK-35609,2025-236Q,2026-06-26T18:01:07.614048,15.34473363,.000133,53.1590,316.4968,108.6470,251.4677,0,U,66100,999,3959,.30271E-2,.10356E-2,0
STARLINK-35595,2025-236R,2026-06-26T16:54:38.517408,15.34379503,.0000758,53.1611,316.9188,131.1564,228.9504,0,U,66101,999,3958,.71085E-3,.23701E-3,0
STARLINK-35599,2025-236S,2026-06-26T15:57:02.856096,15.34418661,.0002312,53.1585,316.6691,86.3066,273.8201,0,U,66102,999,3958,.66745E-3,.22255E-3,0
STARLINK-35622,2025-236T,2026-06-26T16:33:25.763328,15.34398346,.0000977,53.1582,316.8267,121.8844,238.2253,0,U,66103,999,3964,.12327E-2,.41501E-3,0
STARLINK-35452,2025-236U,2026-06-25T16:39:12.297312,15.34420025,.00009884,53.1577,321.2752,77.8538,282.2575,0,U,66104,999,3949,.12198516E-2,.41091E-3,0
STARLINK-35561,2025-236V,2026-06-26T17:03:43.490592,15.34415361,.000108,53.1607,316.9526,129.5809,230.5289,0,U,66105,999,3958,.1134E-2,.3815E-3,0
STARLINK-35584,2025-236W,2026-06-26T15:54:02.619648,15.34386226,.0000485,53.1598,316.6561,121.0016,239.1034,0,U,66106,999,3964,.90241E-3,.30223E-3,0
STARLINK-35593,2025-236X,2026-06-26T17:55:06.240000,15.34386895,.0001206,53.1596,316.4668,115.5798,244.5330,0,U,66107,999,3965,.89758E-3,.30059E-3,0
STARLINK-35590,2025-236Y,2026-06-26T17:00:42.359040,15.34418175,.0000585,53.1632,316.9414,57.6958,302.4102,0,U,66108,999,3958,.11356E-2,.38209E-3,0
STARLINK-35545,2025-236Z,2026-06-26T16:39:29.521152,15.34396379,.0001208,53.1581,316.8521,80.5078,279.6061,0,U,66109,999,3964,.11148E-2,.37473E-3,0
STARLINK-35427,2025-236AA,2026-06-26T15:51:26.174304,15.30179776,.0001903,53.1595,318.0593,95.9403,264.1814,0,U,66110,999,3962,.11845E-2,.34867E-3,0
STARLINK-35574,2025-236AB,2026-06-26T15:48:23.889312,15.30194096,.0001747,53.1611,318.0464,78.6236,281.4961,0,U,66111,999,3956,.98954E-3,.29058E-3,0
STARLINK-35531,2025-236AC,2026-06-26T18:01:47.871264,15.30186843,.0000934,53.1587,317.2020,77.4870,282.6235,0,U,66112,999,3964,.96453E-3,.28305E-3,0
STARLINK-35491,2025-236AD,2026-06-26T15:45:21.560256,15.30203859,.0001536,53.1604,318.0331,79.5358,280.5816,0,U,66113,999,3962,.10497E-2,.30862E-3,0
STARLINK-35496,2025-237A,2026-06-26T17:12:02.428992,15.34388934,.0001087,53.1589,252.4565,94.3978,265.7149,0,U,66114,999,3931,.59175E-3,.19663E-3,0
STARLINK-35428,2025-237B,2026-06-26T14:29:57.816096,15.30187595,.0001121,53.1589,253.8861,89.1844,270.9285,0,U,66115,999,3927,.84389E-3,.24708E-3,0
STARLINK-35573,2025-237C,2026-06-26T11:12:00.192096,15.34390484,.0000813,53.1595,253.7391,90.5469,269.5627,0,U,66116,999,3927,.67015E-3,.22326E-3,0
